ELEKTRO-L 3             
1 44903U 19095A   26188.62990071 -.00000082  00000+0  00000+0 0  9992
2 44903   0.3062  82.1026 0001493  14.3840 131.8658  1.00271965 23917
SHIJIAN-20 (SJ-20)      
1 44910U 19097A   26188.29637583  .00000147  00000+0  00000+0 0  9992
2 44910   4.9666  74.8162 0015605  58.4611 303.5963  1.00277050 23906
TJS-5                   
1 44978U 20002A   26187.88116344 -.00000327  00000+0  00000+0 0  9996
2 44978   0.0418  68.7420 0008101 346.7653 294.0821  1.00273081 23900
GSAT-30                 
1 45026U 20005A   26188.58922642 -.00000149  00000+0  00000+0 0  9990
2 45026   0.0285  94.2594 0003330 357.4599 128.9744  1.00270200 23718
EUTELSAT KONNECT        
1 45027U 20005B   26188.07517715  .00000065  00000+0  00000+0 0  9992
2 45027   0.0668  94.2131 0002240 131.4503  93.6723  1.00274681 24538
JCSAT-17                
1 45245U 20013A   26188.50063434 -.00000302  00000+0  00000+0 0  9990
2 45245   5.3918 357.0448 0002995 121.4032 123.2677  1.00272663 23434
GEO-KOMPSAT-2B          
1 45246U 20013B   26188.52689486 -.00000328  00000+0  00000+0 0  9992
2 45246   0.0427 206.0216 0000808  29.0282   8.3885  1.00270644 23485
BEIDOU-3 G2             
1 45344U 20017A   26188.58861976 -.00000127  00000+0  00000+0 0  9994
2 45344   2.9029  47.6220 0002385  53.2186 116.6945  1.00270620 23463
AEHF-6 (USA 298)        
1 45465U 20022B   26188.62856959 -.00000281  00000+0  00000+0 0  9995
2 45465   2.5056 301.3758 0041984  15.7215 332.5122  1.00274664 23214
BEIDOU-3 G3             
1 45807U 20040A   26188.59819168 -.00000340  00000+0  00000+0 0  9998
2 45807   2.4942  67.4780 0002085 333.7575 210.2102  1.00268537 22270
APSTAR-6D               
1 45863U 20045A   26187.88645013 -.00000302  00000+0  00000+0 0  9990
2 45863   0.0392  86.1816 0002188  12.0255 279.8341  1.00271564 22055
KOREASAT 116            
1 45920U 20048A   26188.59581311 -.00000347  00000+0  00000+0 0  9995
2 45920   0.0160 356.5396 0000905 106.4317 153.3120  1.00271071 21841
EXPRESS 103             
1 45985U 20053A   26188.62040076 -.00000266  00000+0  00000+0 0  9994
2 45985   0.0322 258.1351 0001614 222.3536 124.9463  1.00273017 21856
EXPRESS 80              
1 45986U 20053B   26187.98628579  .00000000  00000+0  00000+0 0  9998
2 45986   0.0186   8.7125 0001735 195.5757 155.7036  1.00270274 21831
BSAT-4B                 
1 46112U 20056A   26187.95290966  .00000000  00000+0  00000+0 0  9995
2 46112   0.0117 160.0498 0004182 331.6223 246.1268  1.00267286 21585
MEV-2                   
1 46113U 20056B   26188.28744913  .00000003  00000+0  00000+0 0  9992
2 46113   0.0448 260.4083 0000322  25.0168 102.3088  1.00264278 80892
GALAXY 30 (G-30)        
1 46114U 20056C   26187.76375413  .00000052  00000+0  00000+0 0  9994
2 46114   0.0206  38.7570 0002186  67.2773 328.6685  1.00270907 21484
GAOFEN-13 01            
1 46610U 20071A   26188.62711502 -.00000348  00000+0  00000+0 0  9990
2 46610   0.4475  86.2876 0045046 120.1520  63.1960  1.00270079 21123
TIANTONG-1 2            
1 46916U 20082A   26188.67132207 -.00000340  00000+0  00000+0 0  9997
2 46916   0.7667 330.4108 0001497 132.3789 189.4805  1.00270922 20850
LUCAS (JDRS-1)          
1 47202U 20089A   26188.59905080 -.00000221  00000+0  00000+0 0  9999
2 47202   0.0472 267.8513 0001829 188.2286 135.9333  1.00273239 20621
SXM-7                   
1 47240U 20096A   26188.55591138 -.00000190  00000+0  00000+0 0  9995
2 47240   0.0229 101.6862 0003702  19.6650 279.1468  1.00270573  7644
CMS-01                  
1 47256U 20099A   26188.16152797 -.00000149  00000+0  00000+0 0  9990
2 47256   0.0541  92.9269 0003355 176.9352 156.4053  1.00270158 20394
TURKSAT 5A              
1 47306U 21001A   26188.57887815  .00000169  00000+0  00000+0 0  9992
2 47306   0.0164  68.0052 0000133 163.6425 293.2182  1.00271056 20177
TIANTONG-1 3            
1 47321U 21003A   26188.58896642 -.00000140  00000+0  00000+0 0  9990
2 47321   1.7409 340.5288 0003358 132.3300 106.2756  1.00272084 20161
TJS-6                   
1 47613U 21010A   26188.62199132  .00000058  00000+0  00000+0 0  9994
2 47613   0.2005 262.4194 0003297 232.3295 193.2144  1.00271300 20016
SBIRS GEO-5 (USA 315)   
1 48618U 21042A   26188.46503035 -.00000253  00000+0  00000+0 0  9996
2 48618   5.0790 329.2611 0001644 149.0714  68.3248  1.00271142 18979
FENGYUN 4B              
1 48808U 21047A   26188.59347310 -.00000314  00000+0  00000+0 0  9996
2 48808   0.2004  79.4477 0005755 275.0270 249.4049  1.00266833 18773
SXM-8                   
1 48838U 21049A   26188.05693579 -.00000190  00000+0  00000+0 0  9995
2 48838   0.0141  29.2514 0005398   2.8341 188.2994  1.00272793 18781
TIANLIAN 1-05           
1 49011U 21063A   26188.36221384  .00000122  00000+0  00000+0 0  9994
2 49011   1.6426  80.5412 0000822  65.8022 286.2336  1.00271261 18279
STAR ONE D2             
1 49055U 21069A   26188.05988247  .00000000  00000+0  00000+0 0  9997
2 49055   0.0142  16.9547 0002275 111.5867 107.9543  1.00268686 18149
EUTELSAT QUANTUM        
1 49056U 21069B   26188.58225816  .00000141  00000+0  00000+0 0  9998
2 49056   0.0336 292.9294 0002282 175.6929  74.2577  1.00272496 18134
ZHONGXING-2E            
1 49062U 21071A   26188.60737270 -.00000276  00000+0  00000+0 0  9993
2 49062   0.0467 110.8428 0001874  41.0913  90.3688  1.00271297 18240
