OBJECT_NAME,OBJECT_ID,EPOCH,MEAN_MOTION,ECCENTRICITY,INCLINATION,RA_OF_ASC_NODE,ARG_OF_PERICENTER,MEAN_ANOMALY,EPHEMERIS_TYPE,CLASSIFICATION_TYPE,NORAD_CAT_ID,ELEMENT_SET_NO,REV_AT_EPOCH,BSTAR,MEAN_MOTION_DOT,MEAN_MOTION_DDOT
ELEKTRO-L 3,2019-095A,2026-07-07T15:07:03.421344,1.00271965,.0001493,0.3062,82.1026,14.3840,131.8658,0,U,44903,999,2391,0,-.82E-6,0
SHIJIAN-20 (SJ-20),2019-097A,2026-07-07T07:06:46.871712,1.00277050,.0015605,4.9666,74.8162,58.4611,303.5963,0,U,44910,999,2390,0,.147E-5,0
TJS-5,2020-002A,2026-07-06T21:08:52.521216,1.00273081,.0008101,0.0418,68.7420,346.7653,294.0821,0,U,44978,999,2390,0,-.327E-5,0
GSAT-30,2020-005A,2026-07-07T14:08:29.162688,1.00270200,.00033303,0.0285,94.2594,357.4599,128.9744,0,U,45026,999,2371,0,-.149E-5,0
EUTELSAT KONNECT,2020-005B,2026-07-07T01:48:15.305760,1.00274681,.00022401,0.0668,94.2131,131.4503,93.6723,0,U,45027,999,2453,0,.65E-6,0
JCSAT-17,2020-013A,2026-07-07T12:00:54.806976,1.00272663,.0002995,5.3918,357.0448,121.4032,123.2677,0,U,45245,999,2343,0,-.302E-5,0
GEO-KOMPSAT-2B,2020-013B,2026-07-07T12:38:43.715904,1.00270644,.00008083,0.0427,206.0216,29.0282,8.3885,0,U,45246,999,2348,0,-.328E-5,0
BEIDOU-3 G2,2020-017A,2026-07-07T14:07:36.747264,1.00270620,.00023851,2.9029,47.6220,53.2186,116.6945,0,U,45344,999,2346,0,-.127E-5,0
AEHF-6 (USA 298),2020-022B,2026-07-07T15:05:08.412576,1.00274664,.00419846,2.5056,301.3758,15.7215,332.5122,0,U,45465,999,2321,0,-.281E-5,0
BEIDOU-3 G3,2020-040A,2026-07-07T14:21:23.761152,1.00268537,.00020851,2.4942,67.4780,333.7575,210.2102,0,U,45807,999,2227,0,-.34E-5,0
APSTAR-6D,2020-045A,2026-07-06T21:16:29.291232,1.00271564,.00021888,0.0392,86.1816,12.0255,279.8341,0,U,45863,999,2205,0,-.302E-5,0
KOREASAT 116,2020-048A,2026-07-07T14:17:58.252704,1.00271071,.00009052,0.0160,356.5396,106.4317,153.3120,0,U,45920,999,2184,0,-.347E-5,0
EXPRESS 103,2020-053A,2026-07-07T14:53:22.625664,1.00273017,.00016149,0.0322,258.1351,222.3536,124.9463,0,U,45985,999,2185,0,-.266E-5,0
EXPRESS 80,2020-053B,2026-07-06T23:40:15.092256,1.00270274,.00017352,0.0186,8.7125,195.5757,155.7036,0,U,45986,999,2183,0,0,0
BSAT-4B,2020-056A,2026-07-06T22:52:11.394624,1.00267286,.00041828,0.0117,160.0498,331.6223,246.1268,0,U,46112,999,2158,0,0,0
MEV-2,2020-056B,2026-07-07T06:53:55.604832,1.00264278,.00003228,0.0448,260.4083,25.0168,102.3088,0,U,46113,999,8089,0,.3E-7,0
GALAXY 30 (G-30),2020-056C,2026-07-06T18:19:48.356832,1.00270907,.00021864,0.0206,38.7570,67.2773,328.6685,0,U,46114,999,2148,0,.52E-6,0
GAOFEN-13 01,2020-071A,2026-07-07T15:03:02.737728,1.00270079,.00450464,0.4475,86.2876,120.1520,63.1960,0,U,46610,999,2112,0,-.348E-5,0
TIANTONG-1 2,2020-082A,2026-07-07T16:06:42.226848,1.00270922,.00014974,0.7667,330.4108,132.3789,189.4805,0,U,46916,999,2085,0,-.34E-5,0
LUCAS (JDRS-1),2020-089A,2026-07-07T14:22:37.989120,1.00273239,.00018293,0.0472,267.8513,188.2286,135.9333,0,U,47202,999,2062,0,-.221E-5,0
SXM-7,2020-096A,2026-07-07T13:20:30.743232,1.00270573,.00037027,0.0229,101.6862,19.6650,279.1468,0,U,47240,999,764,0,-.19E-5,0
CMS-01,2020-099A,2026-07-07T03:52:36.016608,1.00270158,.0003355,0.0541,92.9269,176.9352,156.4053,0,U,47256,999,2039,0,-.149E-5,0
TURKSAT 5A,2021-001A,2026-07-07T13:53:35.072160,1.00271056,.00001336,0.0164,68.0052,163.6425,293.2182,0,U,47306,999,2017,0,.169E-5,0
TIANTONG-1 3,2021-003A,2026-07-07T14:08:06.698688,1.00272084,.00033585,1.7409,340.5288,132.3300,106.2756,0,U,47321,999,2016,0,-.14E-5,0
TJS-6,2021-010A,2026-07-07T14:55:40.050048,1.00271300,.00032975,0.2005,262.4194,232.3295,193.2144,0,U,47613,999,2001,0,.58E-6,0
SBIRS GEO-5 (USA 315),2021-042A,2026-07-07T11:09:38.622240,1.00271142,.00016449,5.0790,329.2611,149.0714,68.3248,0,U,48618,999,1897,0,-.253E-5,0
FENGYUN 4B,2021-047A,2026-07-07T14:14:36.075840,1.00266833,.00057555,0.2004,79.4477,275.0270,249.4049,0,U,48808,999,1877,0,-.314E-5,0
SXM-8,2021-049A,2026-07-07T01:21:59.252256,1.00272793,.00053988,0.0141,29.2514,2.8341,188.2994,0,U,48838,999,1878,0,-.19E-5,0
TIANLIAN 1-05,2021-063A,2026-07-07T08:41:35.275776,1.00271261,.00008221,1.6426,80.5412,65.8022,286.2336,0,U,49011,999,1827,0,.122E-5,0
STAR ONE D2,2021-069A,2026-07-07T01:26:13.845408,1.00268686,.0002275,0.0142,16.9547,111.5867,107.9543,0,U,49055,999,1814,0,0,0
EUTELSAT QUANTUM,2021-069B,2026-07-07T13:58:27.105024,1.00272496,.00022828,0.0336,292.9294,175.6929,74.2577,0,U,49056,999,1813,0,.141E-5,0
ZHONGXING-2E,2021-071A,2026-07-07T14:34:37.001280,1.00271297,.00018748,0.0467,110.8428,41.0913,90.3688,0,U,49062,999,1824,0,-.276E-5,0
